{
"type": "FeatureCollection",
"name": "buildings",
"crs": { "type": "name", "properties": { "name": "urn:ogc:def:crs:EPSG::32619" } },
"features": [
{ "type": "Feature", "properties": { }, "geometry": { "type": "Polygon", "coordinates": [ [ [ 633705.169, 3400471.615000000223517 ], [ 633706.62, 3400456.308999999891967 ], [ 633707.756999999983236, 3400455.549000000115484 ], [ 633758.738000000012107, 3400426.202 ], [ 633780.962999999988824, 3400429.5 ], [ 633805.63800000003539, 3400439.757000000216067 ], [ 633807.991999999969266, 3400447.199 ], [ 633822.459999999962747, 3400544.051 ], [ 633821.115, 3400563.281 ], [ 633817.412999999942258, 3400564.88799999980256 ], [ 633719.939999999944121, 3400544.06 ], [ 633710.015999999945052, 3400523.646999999880791 ], [ 633705.169, 3400471.615000000223517 ] ] ] } },
{ "type": "Feature", "properties": { }, "geometry": { "type": "Polygon", "coordinates": [ [ [ 633723.234000000054948, 3400545.208000000100583 ], [ 633709.594000000040978, 3400589.75 ], [ 633687.549, 3400627.199 ], [ 633677.78000000002794, 3400633.648 ], [ 633669.207000000053085, 3400634.907000000122935 ], [ 633661.996999999973923, 3400634.981999999843538 ], [ 633605.827999999979511, 3400635.362999999895692 ], [ 633574.699999999953434, 3400634.995000000111759 ], [ 633568.949999999953434, 3400634.884 ], [ 633557.944999999948777, 3400631.688999999780208 ], [ 633557.412999999942258, 3400631.245000000111759 ], [ 633556.167999999946915, 3400611.406 ], [ 633555.383999999961816, 3400585.15 ], [ 633555.564999999944121, 3400564.656 ], [ 633572.846000000019558, 3400433.561000000219792 ], [ 633575.21999999997206, 3400423.369 ], [ 633580.439000000013039, 3400415.69400000013411 ], [ 633582.844000000040978, 3400414.399000000208616 ], [ 633639.902, 3400384.532999999821186 ], [ 633643.663999999989755, 3400383.063 ], [ 633643.942000000039116, 3400383.026 ], [ 633651.841999999945983, 3400382.188999999780208 ], [ 633657.064999999944121, 3400381.776 ], [ 633674.42000000004191, 3400382.057 ], [ 633682.559, 3400384.299000000115484 ], [ 633683.920999999972992, 3400386.42 ], [ 633684.003999999957159, 3400386.716 ], [ 633723.234000000054948, 3400545.208000000100583 ] ] ] } },
{ "type": "Feature", "properties": { }, "geometry": { "type": "Polygon", "coordinates": [ [ [ 633700.788999999989755, 3400035.67 ], [ 633750.155999999959022, 3400064.055000000167638 ], [ 633741.503999999957159, 3400100.219 ], [ 633710.82999999995809, 3400117.825999999884516 ], [ 633701.503000000026077, 3400121.284 ], [ 633690.562000000034459, 3400121.026 ], [ 633685.246000000042841, 3400112.203000000212342 ], [ 633682.074000000022352, 3400089.142 ], [ 633690.38, 3400058.477 ], [ 633699.125, 3400038.146999999880791 ], [ 633700.788999999989755, 3400035.67 ] ] ] } },
{ "type": "Feature", "properties": { }, "geometry": { "type": "Polygon", "coordinates": [ [ [ 633819.76500000001397, 3400574.716 ], [ 633780.973, 3400620.345000000204891 ], [ 633780.508000000030734, 3400620.765000000130385 ], [ 633777.27800000004936, 3400623.092000000178814 ], [ 633775.219000000040978, 3400621.651999999769032 ], [ 633775.187999999965541, 3400617.043 ], [ 633777.462000000057742, 3400569.117999999783933 ], [ 633783.066, 3400562.096 ], [ 633819.261000000056811, 3400572.012000000104308 ], [ 633819.76500000001397, 3400574.716 ] ] ] } },
{ "type": "Feature", "properties": { }, "geometry": { "type": "Polygon", "coordinates": [ [ [ 633712.643999999971129, 3400241.703000000212342 ], [ 633713.934, 3400279.603000000119209 ], [ 633706.962999999988824, 3400290.514 ], [ 633690.731000000028871, 3400293.677000000141561 ], [ 633690.51500000001397, 3400292.795 ], [ 633686.687999999965541, 3400275.876999999862164 ], [ 633685.572000000043772, 3400269.401 ], [ 633685.871000000042841, 3400263.73700000019744 ], [ 633691.015999999945052, 3400247.017 ], [ 633691.952999999979511, 3400244.052000000141561 ], [ 633698.189999999944121, 3400234.623999999836087 ], [ 633698.807999999960884, 3400234.327 ], [ 633712.643999999971129, 3400241.703000000212342 ] ] ] } },
{ "type": "Feature", "properties": { }, "geometry": { "type": "Polygon", "coordinates": [ [ [ 633504.322999999974854, 3400391.671 ], [ 633512.381000000052154, 3400373.63799999980256 ], [ 633515.716000000014901, 3400373.609999999869615 ], [ 633522.927000000025146, 3400373.578000000212342 ], [ 633523.854999999981374, 3400376.37099999981001 ], [ 633523.912000000011176, 3400388.555000000167638 ], [ 633523.915999999968335, 3400390.302000000141561 ], [ 633523.714000000036322, 3400391.441999999806285 ], [ 633516.552000000025146, 3400391.69 ], [ 633504.322999999974854, 3400391.671 ] ] ] } },
{ "type": "Feature", "properties": { }, "geometry": { "type": "Polygon", "coordinates": [ [ [ 633588.508999999961816, 3400405.359999999869615 ], [ 633582.978, 3400395.747 ], [ 633583.104000000050291, 3400394.816000000108033 ], [ 633583.321, 3400394.427999999839813 ], [ 633596.775000000023283, 3400382.731000000145286 ], [ 633603.309, 3400383.05599999986589 ], [ 633603.517, 3400383.1 ], [ 633605.270000000018626, 3400383.472 ], [ 633606.437999999965541, 3400385.626000000163913 ], [ 633609.527, 3400397.515999999828637 ], [ 633609.101999999955297, 3400404.33600000012666 ], [ 633606.961000000010245, 3400412.608 ], [ 633588.508999999961816, 3400405.359999999869615 ] ] ] } },
{ "type": "Feature", "properties": { }, "geometry": { "type": "Polygon", "coordinates": [ [ [ 633730.660000000032596, 3400344.478000000119209 ], [ 633709.033000000054017, 3400332.43099999986589 ], [ 633709.201, 3400328.208000000100583 ], [ 633709.684, 3400327.719 ], [ 633716.626000000047497, 3400326.166000000201166 ], [ 633719.577999999979511, 3400326.037 ], [ 633742.665999999968335, 3400325.251999999862164 ], [ 633744.841000000014901, 3400325.393999999854714 ], [ 633740.777, 3400338.804 ], [ 633730.660000000032596, 3400344.478000000119209 ] ] ] } },
{ "type": "Feature", "properties": { }, "geometry": { "type": "Polygon", "coordinates": [ [ [ 633691.748999999952503, 3400237.166000000201166 ], [ 633684.452999999979511, 3400226.484999999869615 ], [ 633684.618999999947846, 3400225.356000000145286 ], [ 633685.85999999998603, 3400220.768000000156462 ], [ 633687.256999999983236, 3400216.466 ], [ 633688.966999999945983, 3400211.349 ], [ 633701.962000000057742, 3400211.930000000167638 ], [ 633711.77800000004936, 3400212.728000000119209 ], [ 633712.841000000014901, 3400225.491 ], [ 633712.474999999976717, 3400230.001000000163913 ], [ 633702.011000000056811, 3400235.217999999877065 ], [ 633691.748999999952503, 3400237.166000000201166 ] ] ] } },
{ "type": "Feature", "properties": { }, "geometry": { "type": "Polygon", "coordinates": [ [ [ 633753.689999999944121, 3400074.11200000019744 ], [ 633747.392, 3400072.702 ], [ 633734.626000000047497, 3400052.989 ], [ 633731.131000000052154, 3400042.592999999877065 ], [ 633733.567999999970198, 3400033.48700000019744 ], [ 633757.363999999943189, 3400022.410000000149012 ], [ 633768.437999999965541, 3400024.318 ], [ 633769.714000000036322, 3400027.063 ], [ 633769.319000000017695, 3400041.796 ], [ 633768.810000000055879, 3400047.886 ], [ 633766.550000000046566, 3400053.941999999806285 ], [ 633754.317999999970198, 3400073.606000000145286 ], [ 633753.689999999944121, 3400074.11200000019744 ] ] ] } },
{ "type": "Feature", "properties": { }, "geometry": { "type": "Polygon", "coordinates": [ [ [ 633684.511999999987893, 3400325.515999999828637 ], [ 633685.143999999971129, 3400324.433000000193715 ], [ 633749.978, 3400342.93099999986589 ], [ 633783.393999999971129, 3400394.910999999847263 ], [ 633786.071, 3400414.511 ], [ 633777.498999999952503, 3400423.742 ], [ 633716.768999999971129, 3400449.548 ], [ 633715.645999999949709, 3400449.924000000115484 ], [ 633714.160999999963678, 3400450.094 ], [ 633701.022, 3400450.541999999899417 ], [ 633699.40500000002794, 3400446.026 ], [ 633692.974999999976717, 3400407.697999999858439 ], [ 633688.623999999952503, 3400374.74599999981001 ], [ 633685.299, 3400337.815 ], [ 633684.511999999987893, 3400325.515999999828637 ] ] ] } },
{ "type": "Feature", "properties": { }, "geometry": { "type": "Polygon", "coordinates": [ [ [ 633709.817999999970198, 3400022.04 ], [ 633711.61199999996461, 3400009.759999999776483 ], [ 633712.650999999954365, 3400009.358 ], [ 633752.689000000013039, 3400002.035999999847263 ], [ 633764.373999999952503, 3400005.875 ], [ 633769.194000000017695, 3400008.534 ], [ 633769.241999999969266, 3400012.742999999783933 ], [ 633765.128000000026077, 3400016.740000000223517 ], [ 633743.37699999997858, 3400027.28899999987334 ], [ 633739.037999999942258, 3400028.796999999787658 ], [ 633709.934, 3400022.187 ], [ 633709.817999999970198, 3400022.04 ] ] ] } },
{ "type": "Feature", "properties": { }, "geometry": { "type": "Polygon", "coordinates": [ [ [ 633894.922999999951571, 3400260.805000000167638 ], [ 633894.223, 3400253.478000000119209 ], [ 633894.483, 3400252.912 ], [ 633900.071, 3400254.591 ], [ 633896.02800000004936, 3400259.759 ], [ 633894.922999999951571, 3400260.805000000167638 ] ] ] } },
{ "type": "Feature", "properties": { }, "geometry": { "type": "Polygon", "coordinates": [ [ [ 633494.915000000037253, 3400594.308000000193715 ], [ 633502.496999999973923, 3400550.233 ], [ 633525.366000000038184, 3400552.668 ], [ 633547.339999999967404, 3400563.967000000178814 ], [ 633547.883000000030734, 3400567.330999999772757 ], [ 633549.457999999984168, 3400603.503 ], [ 633549.24, 3400609.435 ], [ 633536.533000000054017, 3400618.268999999854714 ], [ 633534.050999999977648, 3400618.858 ], [ 633526.794, 3400620.473000000230968 ], [ 633495.035999999963678, 3400602.674000000115484 ], [ 633494.944999999948777, 3400597.674999999813735 ], [ 633494.915000000037253, 3400594.308000000193715 ] ] ] } },
{ "type": "Feature", "properties": { }, "geometry": { "type": "Polygon", "coordinates": [ [ [ 633726.378999999957159, 3400650.761 ], [ 633727.560000000055879, 3400643.349 ], [ 633729.697000000043772, 3400641.504999999888241 ], [ 633731.251000000047497, 3400640.241 ], [ 633746.398000000044703, 3400645.416999999899417 ], [ 633747.917000000015832, 3400646.009999999776483 ], [ 633751.853, 3400648.171999999787658 ], [ 633751.939999999944121, 3400648.44400000013411 ], [ 633747.456, 3400657.683000000193715 ], [ 633744.439999999944121, 3400658.199 ], [ 633736.696, 3400655.813999999780208 ], [ 633726.378999999957159, 3400650.761 ] ] ] } },
{ "type": "Feature", "properties": { }, "geometry": { "type": "Polygon", "coordinates": [ [ [ 633802.400000000023283, 3399913.054 ], [ 633801.226999999955297, 3399915.521000000182539 ], [ 633794.032, 3399909.913000000175089 ], [ 633793.327999999979511, 3399902.426 ], [ 633794.462999999988824, 3399901.136 ], [ 633800.993999999947846, 3399908.731999999843538 ], [ 633802.400000000023283, 3399913.054 ] ] ] } },
{ "type": "Feature", "properties": { }, "geometry": { "type": "Polygon", "coordinates": [ [ [ 633777.136000000056811, 3399928.884999999776483 ], [ 633767.601000000024214, 3399998.660999999847263 ], [ 633767.451, 3399998.699 ], [ 633753.486000000033528, 3400001.484999999869615 ], [ 633748.503999999957159, 3400002.421999999787658 ], [ 633740.476000000024214, 3400002.632000000216067 ], [ 633719.148999999975786, 3400002.974 ], [ 633718.03000000002794, 3400001.392 ], [ 633716.505, 3399997.336999999824911 ], [ 633714.101000000024214, 3399989.478999999817461 ], [ 633737.310999999986961, 3399937.075000000186265 ], [ 633760.037000000011176, 3399911.069999999832362 ], [ 633766.385, 3399906.543 ], [ 633772.623999999952503, 3399911.483 ], [ 633777.136000000056811, 3399928.884999999776483 ] ] ] } },
{ "type": "Feature", "properties": { }, "geometry": { "type": "Polygon", "coordinates": [ [ [ 633575.305000000051223, 3400383.719 ], [ 633567.594000000040978, 3400374.866 ], [ 633569.858, 3400369.765000000130385 ], [ 633598.569000000017695, 3400367.122 ], [ 633609.528999999980442, 3400370.154 ], [ 633610.162999999942258, 3400370.458999999798834 ], [ 633610.5, 3400370.662 ], [ 633613.65300000004936, 3400373.669000000227243 ], [ 633613.121999999973923, 3400375.859000000171363 ], [ 633589.062000000034459, 3400384.566000000108033 ], [ 633586.912999999942258, 3400384.477 ], [ 633575.305000000051223, 3400383.719 ] ] ] } },
{ "type": "Feature", "properties": { }, "geometry": { "type": "Polygon", "coordinates": [ [ [ 633683.246999999973923, 3400151.48700000019744 ], [ 633686.59699999995064, 3400131.876000000163913 ], [ 633690.934, 3400125.376999999862164 ], [ 633701.883999999961816, 3400129.721 ], [ 633702.831, 3400130.464999999850988 ], [ 633709.843, 3400139.657999999821186 ], [ 633711.98499999998603, 3400150.549000000115484 ], [ 633711.383000000030734, 3400157.381 ], [ 633711.187000000034459, 3400159.098000000230968 ], [ 633710.506999999983236, 3400159.606999999843538 ], [ 633685.718, 3400158.563999999780208 ], [ 633685.165000000037253, 3400158.12099999981001 ], [ 633683.611000000033528, 3400152.791999999899417 ], [ 633683.246999999973923, 3400151.48700000019744 ] ] ] } },
{ "type": "Feature", "properties": { }, "geometry": { "type": "Polygon", "coordinates": [ [ [ 633702.496000000042841, 3400651.549999999813735 ], [ 633694.579000000027008, 3400645.773 ], [ 633695.172999999951571, 3400641.092999999877065 ], [ 633697.991999999969266, 3400640.816000000108033 ], [ 633708.726999999955297, 3400640.555000000167638 ], [ 633709.587999999988824, 3400640.954 ], [ 633702.496000000042841, 3400651.549999999813735 ] ] ] } },
{ "type": "Feature", "properties": { }, "geometry": { "type": "Polygon", "coordinates": [ [ [ 633711.211000000010245, 3400659.077 ], [ 633701.947999999974854, 3400668.768999999854714 ], [ 633699.685999999986961, 3400669.38799999980256 ], [ 633686.699000000022352, 3400669.171 ], [ 633681.491999999969266, 3400668.955 ], [ 633681.011000000056811, 3400668.648 ], [ 633680.697999999974854, 3400667.299999999813735 ], [ 633680.353, 3400665.342000000178814 ], [ 633679.84699999995064, 3400652.842000000178814 ], [ 633679.672000000020489, 3400647.836999999824911 ], [ 633679.560000000055879, 3400642.882000000216067 ], [ 633679.589000000036322, 3400642.5 ], [ 633679.85999999998603, 3400641.585 ], [ 633680.398999999975786, 3400640.677000000141561 ], [ 633680.797999999951571, 3400640.217000000178814 ], [ 633686.457000000053085, 3400640.788000000175089 ], [ 633694.574000000022352, 3400646.412 ], [ 633702.647, 3400652.308999999891967 ], [ 633711.211000000010245, 3400659.077 ] ] ] } },
{ "type": "Feature", "properties": { }, "geometry": { "type": "Polygon", "coordinates": [ [ [ 633641.981000000028871, 3400345.032999999821186 ], [ 633643.417999999946915, 3400317.182 ], [ 633643.670999999972992, 3400316.358 ], [ 633671.365, 3400316.785000000149012 ], [ 633672.229999999981374, 3400317.011 ], [ 633675.699999999953434, 3400325.153 ], [ 633676.104000000050291, 3400326.682 ], [ 633670.505, 3400343.009999999776483 ], [ 633665.305999999982305, 3400349.222 ], [ 633664.636999999987893, 3400349.673 ], [ 633642.517, 3400345.626999999862164 ], [ 633642.300000000046566, 3400345.525 ], [ 633641.981000000028871, 3400345.032999999821186 ] ] ] } },
{ "type": "Feature", "properties": { }, "geometry": { "type": "Polygon", "coordinates": [ [ [ 633691.302000000025146, 3400200.26299999980256 ], [ 633685.258000000030734, 3400191.200999999884516 ], [ 633685.32999999995809, 3400189.839000000152737 ], [ 633685.930000000051223, 3400179.085 ], [ 633700.131000000052154, 3400165.744 ], [ 633712.643000000040047, 3400161.93099999986589 ], [ 633713.212000000057742, 3400162.890999999828637 ], [ 633714.976999999955297, 3400166.092999999877065 ], [ 633715.684, 3400169.99599999981001 ], [ 633715.341999999945983, 3400188.01299999980256 ], [ 633714.294, 3400201.608 ], [ 633713.106999999959953, 3400202.949 ], [ 633694.221000000019558, 3400200.921 ], [ 633691.302000000025146, 3400200.26299999980256 ] ] ] } },
{ "type": "Feature", "properties": { }, "geometry": { "type": "Polygon", "coordinates": [ [ [ 633746.903999999980442, 3400677.87900000018999 ], [ 633736.589000000036322, 3400685.42 ], [ 633733.738999999943189, 3400681.322000000160187 ], [ 633733.488000000012107, 3400679.163000000175089 ], [ 633735.322000000043772, 3400672.878 ], [ 633736.792999999946915, 3400671.802000000141561 ], [ 633741.76500000001397, 3400672.245000000111759 ], [ 633746.334999999962747, 3400675.773 ], [ 633746.903999999980442, 3400677.87900000018999 ] ] ] } },
{ "type": "Feature", "properties": { }, "geometry": { "type": "Polygon", "coordinates": [ [ [ 633515.560000000055879, 3400545.142 ], [ 633531.283999999985099, 3400534.944999999832362 ], [ 633537.704000000027008, 3400536.557 ], [ 633541.447000000043772, 3400544.788000000175089 ], [ 633540.508999999961816, 3400545.008 ], [ 633521.13, 3400546.140999999828637 ], [ 633517.143999999971129, 3400546.017 ], [ 633516.17000000004191, 3400545.67 ], [ 633515.560000000055879, 3400545.142 ] ] ] } },
{ "type": "Feature", "properties": { }, "geometry": { "type": "Polygon", "coordinates": [ [ [ 633552.064999999944121, 3400406.332 ], [ 633567.060999999986961, 3400389.583000000100583 ], [ 633567.40500000002794, 3400389.757000000216067 ], [ 633579.594000000040978, 3400398.83 ], [ 633581.716999999945983, 3400406.997 ], [ 633570.809, 3400415.94 ], [ 633553.229999999981374, 3400421.711999999824911 ], [ 633552.243999999947846, 3400412.299000000115484 ], [ 633552.064999999944121, 3400406.332 ] ] ] } },
{ "type": "Feature", "properties": { }, "geometry": { "type": "Polygon", "coordinates": [ [ [ 633555.044, 3400537.833999999798834 ], [ 633542.576, 3400534.273 ], [ 633544.180999999982305, 3400524.038000000175089 ], [ 633554.136999999987893, 3400508.096 ], [ 633565.263999999966472, 3400501.592000000178814 ], [ 633571.724999999976717, 3400498.6 ], [ 633572.212999999988824, 3400498.640000000130385 ], [ 633582.635, 3400524.333000000100583 ], [ 633555.044, 3400537.833999999798834 ] ] ] } },
{ "type": "Feature", "properties": { }, "geometry": { "type": "Polygon", "coordinates": [ [ [ 633649.976000000024214, 3400092.801 ], [ 633651.684, 3400082.71 ], [ 633656.189999999944121, 3400078.992999999783933 ], [ 633659.386000000056811, 3400077.595000000204891 ], [ 633660.280999999959022, 3400077.867999999783933 ], [ 633662.407, 3400079.00400000018999 ], [ 633666.044, 3400085.731999999843538 ], [ 633667.731999999959953, 3400090.268000000156462 ], [ 633668.155999999959022, 3400095.455 ], [ 633668.079000000027008, 3400103.740000000223517 ], [ 633665.986000000033528, 3400110.367 ], [ 633664.601999999955297, 3400110.734000000171363 ], [ 633659.672000000020489, 3400111.815 ], [ 633657.783999999985099, 3400112.11200000019744 ], [ 633655.079000000027008, 3400112.37900000018999 ], [ 633651.515999999945052, 3400112.265000000130385 ], [ 633651.074000000022352, 3400111.87099999981001 ], [ 633650.398000000044703, 3400103.987999999895692 ], [ 633649.978, 3400097.279 ], [ 633649.976000000024214, 3400092.801 ] ] ] } },
{ "type": "Feature", "properties": { }, "geometry": { "type": "Polygon", "coordinates": [ [ [ 633846.363000000012107, 3400439.276999999769032 ], [ 633867.853, 3400465.856000000145286 ], [ 633867.849999999976717, 3400465.923 ], [ 633867.697999999974854, 3400467.687 ], [ 633865.449999999953434, 3400467.788000000175089 ], [ 633857.393000000040047, 3400467.859000000171363 ], [ 633833.540000000037253, 3400467.984999999869615 ], [ 633824.85999999998603, 3400467.975999999791384 ], [ 633806.64000000001397, 3400439.254999999888241 ], [ 633814.375, 3400438.856999999843538 ], [ 633829.98699999996461, 3400438.342999999877065 ], [ 633846.363000000012107, 3400439.276999999769032 ] ] ] } },
{ "type": "Feature", "properties": { }, "geometry": { "type": "Polygon", "coordinates": [ [ [ 633671.508000000030734, 3400368.645 ], [ 633665.261999999987893, 3400376.191999999806285 ], [ 633635.795999999972992, 3400376.595000000204891 ], [ 633623.922999999951571, 3400375.651 ], [ 633619.218, 3400374.608 ], [ 633619.214000000036322, 3400373.683999999891967 ], [ 633620.363000000012107, 3400372.509 ], [ 633624.079000000027008, 3400370.589999999850988 ], [ 633635.047000000020489, 3400367.330999999772757 ], [ 633665.76300000003539, 3400365.217999999877065 ], [ 633670.841999999945983, 3400367.193 ], [ 633671.508000000030734, 3400368.645 ] ] ] } },
{ "type": "Feature", "properties": { }, "geometry": { "type": "Polygon", "coordinates": [ [ [ 633852.652, 3400570.73 ], [ 633849.934, 3400569.057 ], [ 633851.17000000004191, 3400565.014 ], [ 633855.403999999980442, 3400563.308999999891967 ], [ 633860.623999999952503, 3400561.822999999858439 ], [ 633861.949000000022352, 3400562.866 ], [ 633852.652, 3400570.73 ] ] ] } },
{ "type": "Feature", "properties": { }, "geometry": { "type": "Polygon", "coordinates": [ [ [ 633621.604999999981374, 3400081.992 ], [ 633622.241999999969266, 3400076.112999999895692 ], [ 633623.824999999953434, 3400074.012000000104308 ], [ 633631.495, 3400076.839000000152737 ], [ 633632.290000000037253, 3400077.399000000208616 ], [ 633633.069000000017695, 3400079.858 ], [ 633632.812999999965541, 3400080.660000000149012 ], [ 633631.207999999984168, 3400085.58 ], [ 633626.15500000002794, 3400086.677999999839813 ], [ 633624.305000000051223, 3400086.702 ], [ 633621.604999999981374, 3400081.992 ] ] ] } },
{ "type": "Feature", "properties": { }, "geometry": { "type": "Polygon", "coordinates": [ [ [ 633690.307999999960884, 3400308.865000000223517 ], [ 633690.348, 3400300.038000000175089 ], [ 633690.449000000022352, 3400295.251999999862164 ], [ 633690.723, 3400295.265000000130385 ], [ 633716.37300000002142, 3400299.231000000145286 ], [ 633716.491000000038184, 3400299.568 ], [ 633717.300999999977648, 3400307.882000000216067 ], [ 633717.226999999955297, 3400308.620000000111759 ], [ 633716.919, 3400309.53899999987334 ], [ 633690.621000000042841, 3400309.08600000012666 ], [ 633690.307999999960884, 3400308.865000000223517 ] ] ] } },
{ "type": "Feature", "properties": { }, "geometry": { "type": "Polygon", "coordinates": [ [ [ 633493.787999999942258, 3400552.418 ], [ 633493.969000000040978, 3400550.504999999888241 ], [ 633495.930000000051223, 3400550.450000000186265 ], [ 633501.334999999962747, 3400550.614 ], [ 633499.241999999969266, 3400571.724 ], [ 633497.13, 3400583.109000000171363 ], [ 633494.966999999945983, 3400585.423 ], [ 633494.665999999968335, 3400584.390000000130385 ], [ 633494.599000000045635, 3400582.044000000227243 ], [ 633493.790000000037253, 3400552.781 ], [ 633493.787999999942258, 3400552.418 ] ] ] } },
{ "type": "Feature", "properties": { }, "geometry": { "type": "Polygon", "coordinates": [ [ [ 633719.65500000002794, 3400601.162 ], [ 633717.767, 3400594.338 ], [ 633717.927999999956228, 3400592.253 ], [ 633719.072999999974854, 3400587.583999999798834 ], [ 633720.020000000018626, 3400584.608 ], [ 633723.577000000048429, 3400585.12099999981001 ], [ 633724.033000000054017, 3400599.958000000100583 ], [ 633719.65500000002794, 3400601.162 ] ] ] } },
{ "type": "Feature", "properties": { }, "geometry": { "type": "Polygon", "coordinates": [ [ [ 633673.415999999968335, 3400296.935 ], [ 633671.86199999996461, 3400296.554 ], [ 633672.207999999984168, 3400290.430000000167638 ], [ 633672.897, 3400285.717000000178814 ], [ 633673.292999999946915, 3400285.052000000141561 ], [ 633673.483, 3400285.166999999899417 ], [ 633675.726999999955297, 3400286.717000000178814 ], [ 633675.888999999966472, 3400286.858 ], [ 633676.148999999975786, 3400288.801 ], [ 633673.415999999968335, 3400296.935 ] ] ] } },
{ "type": "Feature", "properties": { }, "geometry": { "type": "Polygon", "coordinates": [ [ [ 633506.79500000004191, 3400533.727 ], [ 633505.175999999977648, 3400528.398 ], [ 633505.261000000056811, 3400528.346 ], [ 633517.481999999959953, 3400524.001999999862164 ], [ 633533.952999999979511, 3400522.532999999821186 ], [ 633538.562000000034459, 3400524.046 ], [ 633526.319999999948777, 3400532.296999999787658 ], [ 633510.003999999957159, 3400537.822000000160187 ], [ 633506.79500000004191, 3400533.727 ] ] ] } },
{ "type": "Feature", "properties": { }, "geometry": { "type": "Polygon", "coordinates": [ [ [ 633527.942000000039116, 3400629.804 ], [ 633547.873999999952503, 3400614.299999999813735 ], [ 633548.626000000047497, 3400616.162 ], [ 633549.412999999942258, 3400618.203000000212342 ], [ 633549.613000000012107, 3400625.078000000212342 ], [ 633549.608, 3400627.389 ], [ 633549.268999999971129, 3400632.171999999787658 ], [ 633535.67000000004191, 3400642.91399999987334 ], [ 633525.417000000015832, 3400646.469 ], [ 633525.042000000015832, 3400645.872 ], [ 633524.106999999959953, 3400643.021000000182539 ], [ 633523.079000000027008, 3400637.068 ], [ 633523.598, 3400636.126000000163913 ], [ 633527.942000000039116, 3400629.804 ] ] ] } },
{ "type": "Feature", "properties": { }, "geometry": { "type": "Polygon", "coordinates": [ [ [ 633499.99, 3400385.122 ], [ 633499.841000000014901, 3400377.521999999880791 ], [ 633500.402, 3400375.253 ], [ 633501.160000000032596, 3400373.94 ], [ 633505.491999999969266, 3400373.68099999986589 ], [ 633507.976000000024214, 3400373.702 ], [ 633509.351000000024214, 3400375.481999999843538 ], [ 633509.371999999973923, 3400376.561000000219792 ], [ 633504.430000000051223, 3400381.853000000119209 ], [ 633500.072000000043772, 3400385.389 ], [ 633499.99, 3400385.122 ] ] ] } },
{ "type": "Feature", "properties": { }, "geometry": { "type": "Polygon", "coordinates": [ [ [ 633718.719000000040978, 3400047.916000000201166 ], [ 633711.275999999954365, 3400042.151 ], [ 633711.957999999984168, 3400035.142 ], [ 633714.525999999954365, 3400033.324 ], [ 633722.709000000031665, 3400030.660999999847263 ], [ 633725.327999999979511, 3400030.946 ], [ 633729.40500000002794, 3400032.315 ], [ 633729.052999999956228, 3400034.274000000208616 ], [ 633727.204000000027008, 3400042.063999999780208 ], [ 633718.719000000040978, 3400047.916000000201166 ] ] ] } },
{ "type": "Feature", "properties": { }, "geometry": { "type": "Polygon", "coordinates": [ [ [ 633558.143999999971129, 3400466.876999999862164 ], [ 633556.932000000029802, 3400468.082 ], [ 633553.593, 3400461.858 ], [ 633553.37, 3400460.727 ], [ 633553.851999999955297, 3400452.759 ], [ 633555.128000000026077, 3400448.662 ], [ 633555.365, 3400448.347 ], [ 633555.917000000015832, 3400448.654 ], [ 633556.718, 3400449.324 ], [ 633556.819999999948777, 3400449.977 ], [ 633558.143999999971129, 3400466.876999999862164 ] ] ] } },
{ "type": "Feature", "properties": { }, "geometry": { "type": "Polygon", "coordinates": [ [ [ 633753.741000000038184, 3399907.83600000012666 ], [ 633746.719000000040978, 3399902.683000000193715 ], [ 633747.01300000003539, 3399898.739 ], [ 633755.283999999985099, 3399895.552000000141561 ], [ 633756.138999999966472, 3399896.754999999888241 ], [ 633756.540999999968335, 3399903.473000000230968 ], [ 633755.540000000037253, 3399905.941000000108033 ], [ 633755.267, 3399906.424999999813735 ], [ 633753.741000000038184, 3399907.83600000012666 ] ] ] } },
{ "type": "Feature", "properties": { }, "geometry": { "type": "Polygon", "coordinates": [ [ [ 633544.10999999998603, 3400322.151 ], [ 633542.074999999953434, 3400322.082 ], [ 633530.01500000001397, 3400317.839999999850988 ], [ 633528.846000000019558, 3400316.899000000208616 ], [ 633530.143000000040047, 3400315.787 ], [ 633537.175000000046566, 3400314.271999999880791 ], [ 633540.62300000002142, 3400315.097 ], [ 633545.153999999980442, 3400316.421 ], [ 633545.527, 3400316.876999999862164 ], [ 633546.113000000012107, 3400317.852 ], [ 633546.008000000030734, 3400319.691000000108033 ], [ 633545.968, 3400320.088 ], [ 633545.660999999963678, 3400321.092000000178814 ], [ 633544.10999999998603, 3400322.151 ] ] ] } },
{ "type": "Feature", "properties": { }, "geometry": { "type": "Polygon", "coordinates": [ [ [ 633765.535999999963678, 3400065.30599999986589 ], [ 633765.038999999989755, 3400060.935 ], [ 633769.187000000034459, 3400057.901 ], [ 633770.810999999986961, 3400057.518000000156462 ], [ 633771.54500000004191, 3400057.582 ], [ 633772.712999999988824, 3400058.799999999813735 ], [ 633772.422999999951571, 3400060.953000000212342 ], [ 633769.555000000051223, 3400063.214999999850988 ], [ 633765.535999999963678, 3400065.30599999986589 ] ] ] } },
{ "type": "Feature", "properties": { }, "geometry": { "type": "Polygon", "coordinates": [ [ [ 633792.822999999974854, 3399900.574 ], [ 633786.310000000055879, 3399895.143999999854714 ], [ 633793.885, 3399881.833999999798834 ], [ 633794.310000000055879, 3399881.509999999776483 ], [ 633799.42000000004191, 3399881.784 ], [ 633803.172999999951571, 3399882.180000000167638 ], [ 633805.613999999943189, 3399883.065 ], [ 633804.768000000040047, 3399885.109000000171363 ], [ 633792.822999999974854, 3399900.574 ] ] ] } },
{ "type": "Feature", "properties": { }, "geometry": { "type": "Polygon", "coordinates": [ [ [ 633619.270000000018626, 3400640.916000000201166 ], [ 633618.270000000018626, 3400648.946 ], [ 633602.064999999944121, 3400660.870000000111759 ], [ 633600.829000000027008, 3400660.28899999987334 ], [ 633599.184, 3400642.041000000201166 ], [ 633601.517, 3400641.839000000152737 ], [ 633614.841999999945983, 3400641.117 ], [ 633619.270000000018626, 3400640.916000000201166 ] ] ] } },
{ "type": "Feature", "properties": { }, "geometry": { "type": "Polygon", "coordinates": [ [ [ 633561.90500000002794, 3400434.909 ], [ 633552.538999999989755, 3400436.464000000152737 ], [ 633552.677999999956228, 3400425.771999999880791 ], [ 633558.542999999946915, 3400428.301 ], [ 633561.90500000002794, 3400434.909 ] ] ] } },
{ "type": "Feature", "properties": { }, "geometry": { "type": "Polygon", "coordinates": [ [ [ 633563.780999999959022, 3400474.85 ], [ 633565.773999999975786, 3400487.392 ], [ 633565.425000000046566, 3400489.893000000156462 ], [ 633562.756000000052154, 3400493.606999999843538 ], [ 633555.991000000038184, 3400487.325999999884516 ], [ 633553.682999999960884, 3400483.696 ], [ 633552.979000000050291, 3400480.041000000201166 ], [ 633555.392, 3400477.511 ], [ 633563.780999999959022, 3400474.85 ] ] ] } },
{ "type": "Feature", "properties": { }, "geometry": { "type": "Polygon", "coordinates": [ [ [ 633571.944000000017695, 3400649.950000000186265 ], [ 633571.261000000056811, 3400647.76299999980256 ], [ 633574.64000000001397, 3400644.856999999843538 ], [ 633576.724999999976717, 3400644.026 ], [ 633582.451, 3400643.088 ], [ 633585.153999999980442, 3400642.883 ], [ 633586.353, 3400643.038000000175089 ], [ 633587.979000000050291, 3400644.416999999899417 ], [ 633588.738000000012107, 3400647.221 ], [ 633583.72199999995064, 3400650.75 ], [ 633578.422999999951571, 3400651.973000000230968 ], [ 633575.59699999995064, 3400652.455 ], [ 633571.944000000017695, 3400649.950000000186265 ] ] ] } },
{ "type": "Feature", "properties": { }, "geometry": { "type": "Polygon", "coordinates": [ [ [ 633716.886000000056811, 3399970.824 ], [ 633714.827000000048429, 3399970.083999999798834 ], [ 633714.160000000032596, 3399968.86200000019744 ], [ 633713.212999999988824, 3399966.805000000167638 ], [ 633714.636000000056811, 3399966.134999999776483 ], [ 633715.410000000032596, 3399966.497 ], [ 633719.118000000016764, 3399969.433999999891967 ], [ 633719.189999999944121, 3399969.923 ], [ 633717.560000000055879, 3399970.785999999847263 ], [ 633716.886000000056811, 3399970.824 ] ] ] } },
{ "type": "Feature", "properties": { }, "geometry": { "type": "Polygon", "coordinates": [ [ [ 633650.42000000004191, 3400647.87099999981001 ], [ 633656.924, 3400646.353000000119209 ], [ 633657.905999999959022, 3400649.156 ], [ 633657.925000000046566, 3400649.824 ], [ 633657.861000000033528, 3400652.44400000013411 ], [ 633657.35999999998603, 3400653.092999999877065 ], [ 633656.988000000012107, 3400653.302000000141561 ], [ 633653.591000000014901, 3400653.369 ], [ 633651.192999999970198, 3400653.410999999847263 ], [ 633650.608, 3400652.389 ], [ 633650.42000000004191, 3400647.87099999981001 ] ] ] } },
{ "type": "Feature", "properties": { }, "geometry": { "type": "Polygon", "coordinates": [ [ [ 633622.662000000011176, 3400654.501999999862164 ], [ 633625.020000000018626, 3400667.44 ], [ 633611.34699999995064, 3400664.077 ], [ 633610.645999999949709, 3400661.765000000130385 ], [ 633610.99800000002142, 3400660.674000000115484 ], [ 633618.231999999959953, 3400652.929 ], [ 633622.662000000011176, 3400654.501999999862164 ] ] ] } },
{ "type": "Feature", "properties": { }, "geometry": { "type": "Polygon", "coordinates": [ [ [ 633688.018999999971129, 3400485.994 ], [ 633694.393999999971129, 3400480.239 ], [ 633695.684, 3400482.029999999795109 ], [ 633696.837000000057742, 3400497.623999999836087 ], [ 633696.903999999980442, 3400499.643000000156462 ], [ 633695.118000000016764, 3400500.33 ], [ 633691.555999999982305, 3400494.221 ], [ 633688.018999999971129, 3400485.994 ] ] ] } },
{ "type": "Feature", "properties": { }, "geometry": { "type": "Polygon", "coordinates": [ [ [ 633856.790999999968335, 3400439.915 ], [ 633856.136000000056811, 3400438.688999999780208 ], [ 633857.618999999947846, 3400435.849 ], [ 633858.488000000012107, 3400435.191000000108033 ], [ 633866.224999999976717, 3400439.188999999780208 ], [ 633866.615, 3400439.487999999895692 ], [ 633866.701, 3400439.642 ], [ 633866.77800000004936, 3400444.904999999795109 ], [ 633856.790999999968335, 3400439.915 ] ] ] } },
{ "type": "Feature", "properties": { }, "geometry": { "type": "Polygon", "coordinates": [ [ [ 633629.180000000051223, 3400062.501999999862164 ], [ 633626.699000000022352, 3400058.001999999862164 ], [ 633627.566, 3400056.98 ], [ 633646.099999999976717, 3400051.264 ], [ 633638.462999999988824, 3400059.213 ], [ 633634.263999999966472, 3400061.308999999891967 ], [ 633630.09499999997206, 3400062.379999999888241 ], [ 633629.180000000051223, 3400062.501999999862164 ] ] ] } },
{ "type": "Feature", "properties": { }, "geometry": { "type": "Polygon", "coordinates": [ [ [ 633757.332000000053085, 3400655.241 ], [ 633756.883999999961816, 3400656.588 ], [ 633752.665000000037253, 3400656.484999999869615 ], [ 633751.696, 3400655.904 ], [ 633754.858, 3400654.421999999787658 ], [ 633756.442999999970198, 3400654.859000000171363 ], [ 633757.332000000053085, 3400655.241 ] ] ] } },
{ "type": "Feature", "properties": { }, "geometry": { "type": "Polygon", "coordinates": [ [ [ 633657.941, 3400643.537 ], [ 633641.042000000015832, 3400648.69 ], [ 633638.201, 3400647.849 ], [ 633636.177000000025146, 3400646.349 ], [ 633635.961000000010245, 3400645.606999999843538 ], [ 633635.949999999953434, 3400644.435 ], [ 633636.63800000003539, 3400641.725999999791384 ], [ 633652.535999999963678, 3400641.159 ], [ 633654.398000000044703, 3400641.615000000223517 ], [ 633657.839999999967404, 3400643.006 ], [ 633657.941, 3400643.537 ] ] ] } },
{ "type": "Feature", "properties": { }, "geometry": { "type": "Polygon", "coordinates": [ [ [ 633724.147, 3400625.964000000152737 ], [ 633719.101999999955297, 3400618.05599999986589 ], [ 633719.290000000037253, 3400617.731999999843538 ], [ 633719.726999999955297, 3400617.258 ], [ 633723.317999999970198, 3400615.977 ], [ 633724.393000000040047, 3400615.748999999836087 ], [ 633730.660000000032596, 3400622.353000000119209 ], [ 633724.147, 3400625.964000000152737 ] ] ] } },
{ "type": "Feature", "properties": { }, "geometry": { "type": "Polygon", "coordinates": [ [ [ 633656.658000000054017, 3400052.276 ], [ 633663.886999999987893, 3400050.623000000137836 ], [ 633675.714000000036322, 3400059.355 ], [ 633669.341999999945983, 3400063.44 ], [ 633665.559, 3400063.503 ], [ 633659.381999999983236, 3400056.13799999980256 ], [ 633656.658000000054017, 3400052.276 ] ] ] } },
{ "type": "Feature", "properties": { }, "geometry": { "type": "Polygon", "coordinates": [ [ [ 633671.322999999974854, 3400243.063999999780208 ], [ 633670.172999999951571, 3400242.359000000171363 ], [ 633673.721000000019558, 3400240.046999999787658 ], [ 633674.226000000024214, 3400239.986 ], [ 633675.768000000040047, 3400240.958000000100583 ], [ 633677.481999999959953, 3400243.782999999821186 ], [ 633677.650000000023283, 3400244.279999999795109 ], [ 633678.033000000054017, 3400246.43099999986589 ], [ 633677.398999999975786, 3400246.128 ], [ 633671.322999999974854, 3400243.063999999780208 ] ] ] } },
{ "type": "Feature", "properties": { }, "geometry": { "type": "Polygon", "coordinates": [ [ [ 633516.047000000020489, 3400621.481999999843538 ], [ 633517.038999999989755, 3400621.759999999776483 ], [ 633515.591999999945983, 3400625.734999999869615 ], [ 633513.71999999997206, 3400628.279999999795109 ], [ 633512.150999999954365, 3400629.154 ], [ 633511.636999999987893, 3400629.433000000193715 ], [ 633513.662000000011176, 3400621.700999999884516 ], [ 633513.839000000036322, 3400621.636 ], [ 633516.047000000020489, 3400621.481999999843538 ] ] ] } },
{ "type": "Feature", "properties": { }, "geometry": { "type": "Polygon", "coordinates": [ [ [ 633544.991000000038184, 3400352.199 ], [ 633545.349000000045635, 3400346.335 ], [ 633548.908999999985099, 3400342.467000000178814 ], [ 633551.373999999952503, 3400343.379999999888241 ], [ 633552.435000000055879, 3400353.416000000201166 ], [ 633552.091000000014901, 3400354.080999999772757 ], [ 633547.473, 3400355.285999999847263 ], [ 633545.055000000051223, 3400354.487999999895692 ], [ 633544.991000000038184, 3400352.199 ] ] ] } },
{ "type": "Feature", "properties": { }, "geometry": { "type": "Polygon", "coordinates": [ [ [ 633672.22199999995064, 3400156.312 ], [ 633676.072999999974854, 3400167.474 ], [ 633675.498999999952503, 3400168.294000000227243 ], [ 633672.787000000011176, 3400170.791999999899417 ], [ 633672.042000000015832, 3400169.458999999798834 ], [ 633671.599000000045635, 3400168.032999999821186 ], [ 633670.072000000043772, 3400162.157000000122935 ], [ 633670.169, 3400161.481999999843538 ], [ 633672.22199999995064, 3400156.312 ] ] ] } },
{ "type": "Feature", "properties": { }, "geometry": { "type": "Polygon", "coordinates": [ [ [ 633696.969000000040978, 3400681.671999999787658 ], [ 633697.01300000003539, 3400679.591 ], [ 633703.339000000036322, 3400675.119 ], [ 633704.00199999997858, 3400677.088 ], [ 633704.109000000054948, 3400678.424000000115484 ], [ 633704.008999999961816, 3400678.694999999832362 ], [ 633703.537999999942258, 3400679.393999999854714 ], [ 633697.104999999981374, 3400681.967000000178814 ], [ 633696.969000000040978, 3400681.671999999787658 ] ] ] } },
{ "type": "Feature", "properties": { }, "geometry": { "type": "Polygon", "coordinates": [ [ [ 633521.197000000043772, 3400658.312 ], [ 633524.832999999984168, 3400657.120000000111759 ], [ 633534.770000000018626, 3400664.633 ], [ 633535.593, 3400666.808999999891967 ], [ 633534.32999999995809, 3400666.683000000193715 ], [ 633525.643000000040047, 3400665.525 ], [ 633523.167999999946915, 3400663.023 ], [ 633521.197000000043772, 3400658.312 ] ] ] } },
{ "type": "Feature", "properties": { }, "geometry": { "type": "Polygon", "coordinates": [ [ [ 633554.63, 3400375.372 ], [ 633555.402, 3400382.65 ], [ 633554.305000000051223, 3400385.98 ], [ 633549.457000000053085, 3400385.524000000208616 ], [ 633549.508000000030734, 3400384.53899999987334 ], [ 633550.175000000046566, 3400376.484000000171363 ], [ 633554.63, 3400375.372 ] ] ] } },
{ "type": "Feature", "properties": { }, "geometry": { "type": "Polygon", "coordinates": [ [ [ 633756.657, 3399894.708999999798834 ], [ 633752.75, 3399886.219 ], [ 633759.207999999984168, 3399885.85 ], [ 633761.947000000043772, 3399885.907000000122935 ], [ 633763.51500000001397, 3399886.308999999891967 ], [ 633763.895999999949709, 3399886.481000000145286 ], [ 633757.696, 3399894.223000000230968 ], [ 633756.657, 3399894.708999999798834 ] ] ] } },
{ "type": "Feature", "properties": { }, "geometry": { "type": "Polygon", "coordinates": [ [ [ 633553.493999999947846, 3400334.62099999981001 ], [ 633554.366999999969266, 3400335.398 ], [ 633553.008999999961816, 3400336.089000000152737 ], [ 633545.501000000047497, 3400336.85 ], [ 633545.104999999981374, 3400336.782000000122935 ], [ 633543.756999999983236, 3400333.261 ], [ 633548.011999999987893, 3400333.716 ], [ 633550.040999999968335, 3400333.990000000223517 ], [ 633553.493999999947846, 3400334.62099999981001 ] ] ] } },
{ "type": "Feature", "properties": { }, "geometry": { "type": "Polygon", "coordinates": [ [ [ 633724.658999999985099, 3400676.740000000223517 ], [ 633721.765999999945052, 3400674.01299999980256 ], [ 633719.849999999976717, 3400670.483 ], [ 633719.457000000053085, 3400667.85 ], [ 633720.025999999954365, 3400667.129999999888241 ], [ 633723.238000000012107, 3400665.515000000130385 ], [ 633725.310999999986961, 3400666.074 ], [ 633726.501000000047497, 3400667.305000000167638 ], [ 633727.756000000052154, 3400671.49599999981001 ], [ 633726.336000000010245, 3400675.558000000193715 ], [ 633724.658999999985099, 3400676.740000000223517 ] ] ] } },
{ "type": "Feature", "properties": { }, "geometry": { "type": "Polygon", "coordinates": [ [ [ 633873.290999999968335, 3400296.623000000137836 ], [ 633868.35999999998603, 3400296.222 ], [ 633868.434, 3400293.998999999836087 ], [ 633872.353, 3400285.077 ], [ 633873.628999999957159, 3400285.401999999769032 ], [ 633875.697999999974854, 3400287.098000000230968 ], [ 633874.027, 3400296.614 ], [ 633873.290999999968335, 3400296.623000000137836 ] ] ] } },
{ "type": "Feature", "properties": { }, "geometry": { "type": "Polygon", "coordinates": [ [ [ 633735.138999999966472, 3400294.24599999981001 ], [ 633728.685999999986961, 3400288.78899999987334 ], [ 633736.462000000057742, 3400288.586999999824911 ], [ 633739.261999999987893, 3400288.671 ], [ 633740.816, 3400288.901 ], [ 633737.479000000050291, 3400294.105 ], [ 633735.138999999966472, 3400294.24599999981001 ] ] ] } },
{ "type": "Feature", "properties": { }, "geometry": { "type": "Polygon", "coordinates": [ [ [ 633594.233, 3400088.759999999776483 ], [ 633592.731000000028871, 3400075.529 ], [ 633594.452000000048429, 3400070.924999999813735 ], [ 633599.716000000014901, 3400068.938999999780208 ], [ 633601.567999999970198, 3400078.21 ], [ 633598.82999999995809, 3400088.69400000013411 ], [ 633594.233, 3400088.759999999776483 ] ] ] } },
{ "type": "Feature", "properties": { }, "geometry": { "type": "Polygon", "coordinates": [ [ [ 633714.126000000047497, 3400677.183999999891967 ], [ 633712.65300000004936, 3400678.75400000018999 ], [ 633710.604999999981374, 3400678.265000000130385 ], [ 633709.65300000004936, 3400677.916999999899417 ], [ 633710.892, 3400675.984999999869615 ], [ 633711.775000000023283, 3400674.916999999899417 ], [ 633712.581, 3400674.747 ], [ 633713.88, 3400675.882000000216067 ], [ 633714.126000000047497, 3400677.183999999891967 ] ] ] } }
]
}
