{
"type": "FeatureCollection",
"name": "roads",
"crs": { "type": "name", "properties": { "name": "urn:ogc:def:crs:EPSG::32619" } },
"features": [
{ "type": "Feature", "properties": { }, "geometry": { "type": "LineString", "coordinates": [ [ 633464.093, 3400283.220000000204891 ], [ 633900.893000000040047, 3400283.220000000204891 ] ] } },
{ "type": "Feature", "properties": { }, "geometry": { "type": "LineString", "coordinates": [ [ 633682.493000000016764, 3399890.52 ], [ 633682.493000000016764, 3400675.920000000391155 ] ] } },
{ "type": "Feature", "properties": { }, "geometry": { "type": "LineString", "coordinates": [ [ 633765.127188186743297, 3400495.920735395979136 ], [ 633682.493000000016764, 3400495.920735395979136 ] ] } },
{ "type": "Feature", "properties": { }, "geometry": { "type": "LineString", "coordinates": [ [ 633712.871058090007864, 3400081.045788454823196 ], [ 633682.493000000016764, 3400081.045788454823196 ] ] } },
{ "type": "Feature", "properties": { }, "geometry": { "type": "LineString", "coordinates": [ [ 633700.357139068539254, 3400265.219625124707818 ], [ 633682.493000000016764, 3400265.219625124707818 ] ] } },
{ "type": "Feature", "properties": { }, "geometry": { "type": "LineString", "coordinates": [ [ 633598.161126234801486, 3400397.053782810922712 ], [ 633682.493000000016764, 3400397.053782810922712 ] ] } },
{ "type": "Feature", "properties": { }, "geometry": { "type": "LineString", "coordinates": [ [ 633698.919327985262498, 3400223.36367516592145 ], [ 633682.493000000016764, 3400223.36367516592145 ] ] } },
{ "type": "Feature", "properties": { }, "geometry": { "type": "LineString", "coordinates": [ [ 633729.370784567901865, 3400389.362043466884643 ], [ 633682.493000000016764, 3400389.362043466884643 ] ] } },
{ "type": "Feature", "properties": { }, "geometry": { "type": "LineString", "coordinates": [ [ 633896.413377391523682, 3400256.156280301976949 ], [ 633896.413377391523682, 3400283.220000000204891 ] ] } },
{ "type": "Feature", "properties": { }, "geometry": { "type": "LineString", "coordinates": [ [ 633738.707140050129965, 3400649.366832425352186 ], [ 633682.493000000016764, 3400649.366832425352186 ] ] } },
{ "type": "Feature", "properties": { }, "geometry": { "type": "LineString", "coordinates": [ [ 633749.743315240717493, 3399962.591423424426466 ], [ 633682.493000000016764, 3399962.591423424426466 ] ] } },
{ "type": "Feature", "properties": { }, "geometry": { "type": "LineString", "coordinates": [ [ 633697.270965963019989, 3400144.858979126438498 ], [ 633682.493000000016764, 3400144.858979126438498 ] ] } },
{ "type": "Feature", "properties": { }, "geometry": { "type": "LineString", "coordinates": [ [ 633691.967061482253484, 3400656.884491601027548 ], [ 633682.493000000016764, 3400656.884491601027548 ] ] } },
{ "type": "Feature", "properties": { }, "geometry": { "type": "LineString", "coordinates": [ [ 633702.232260177144781, 3400183.981764189898968 ], [ 633682.493000000016764, 3400183.981764189898968 ] ] } },
{ "type": "Feature", "properties": { }, "geometry": { "type": "LineString", "coordinates": [ [ 633530.093337230733596, 3400541.614874309394509 ], [ 633682.493000000016764, 3400541.614874309394509 ] ] } },
{ "type": "Feature", "properties": { }, "geometry": { "type": "LineString", "coordinates": [ [ 633562.335289979819208, 3400519.897529729641974 ], [ 633682.493000000016764, 3400519.897529729641974 ] ] } },
{ "type": "Feature", "properties": { }, "geometry": { "type": "LineString", "coordinates": [ [ 633836.797407721634954, 3400453.610521831084043 ], [ 633682.493000000016764, 3400453.610521831084043 ] ] } },
{ "type": "Feature", "properties": { }, "geometry": { "type": "LineString", "coordinates": [ [ 633855.113020011107437, 3400565.968076698016375 ], [ 633682.493000000016764, 3400565.968076698016375 ] ] } },
{ "type": "Feature", "properties": { }, "geometry": { "type": "LineString", "coordinates": [ [ 633702.97022070910316, 3400303.256545051932335 ], [ 633702.97022070910316, 3400283.220000000204891 ] ] } },
{ "type": "Feature", "properties": { }, "geometry": { "type": "LineString", "coordinates": [ [ 633721.159708430990577, 3400592.986731043551117 ], [ 633682.493000000016764, 3400592.986731043551117 ] ] } },
{ "type": "Feature", "properties": { }, "geometry": { "type": "LineString", "coordinates": [ [ 633519.724034989951178, 3400529.127567267976701 ], [ 633682.493000000016764, 3400529.127567267976701 ] ] } },
{ "type": "Feature", "properties": { }, "geometry": { "type": "LineString", "coordinates": [ [ 633503.726751076523215, 3400378.13459558179602 ], [ 633503.726751076523215, 3400283.220000000204891 ] ] } },
{ "type": "Feature", "properties": { }, "geometry": { "type": "LineString", "coordinates": [ [ 633555.760501221404411, 3400458.301852202508599 ], [ 633682.493000000016764, 3400458.301852202508599 ] ] } },
{ "type": "Feature", "properties": { }, "geometry": { "type": "LineString", "coordinates": [ [ 633538.732539088232443, 3400317.956396065186709 ], [ 633538.732539088232443, 3400283.220000000204891 ] ] } },
{ "type": "Feature", "properties": { }, "geometry": { "type": "LineString", "coordinates": [ [ 633795.408835566951893, 3399889.712594350334257 ], [ 633682.493000000016764, 3399889.712594350334257 ] ] } },
{ "type": "Feature", "properties": { }, "geometry": { "type": "LineString", "coordinates": [ [ 633556.1724420809187, 3400431.749307787977159 ], [ 633682.493000000016764, 3400431.749307787977159 ] ] } },
{ "type": "Feature", "properties": { }, "geometry": { "type": "LineString", "coordinates": [ [ 633580.010919444030151, 3400647.457085548900068 ], [ 633682.493000000016764, 3400647.457085548900068 ] ] } },
{ "type": "Feature", "properties": { }, "geometry": { "type": "LineString", "coordinates": [ [ 633654.261791018419899, 3400650.193317191675305 ], [ 633682.493000000016764, 3400650.193317191675305 ] ] } },
{ "type": "Feature", "properties": { }, "geometry": { "type": "LineString", "coordinates": [ [ 633693.369539633742534, 3400489.737530449870974 ], [ 633682.493000000016764, 3400489.737530449870974 ] ] } },
{ "type": "Feature", "properties": { }, "geometry": { "type": "LineString", "coordinates": [ [ 633635.045529746916145, 3400057.356442589778453 ], [ 633682.493000000016764, 3400057.356442589778453 ] ] } },
{ "type": "Feature", "properties": { }, "geometry": { "type": "LineString", "coordinates": [ [ 633645.147889649262652, 3400644.266994033008814 ], [ 633682.493000000016764, 3400644.266994033008814 ] ] } },
{ "type": "Feature", "properties": { }, "geometry": { "type": "LineString", "coordinates": [ [ 633665.964770962134935, 3400057.177767990622669 ], [ 633682.493000000016764, 3400057.177767990622669 ] ] } },
{ "type": "Feature", "properties": { }, "geometry": { "type": "LineString", "coordinates": [ [ 633514.273120733443648, 3400624.847878387197852 ], [ 633682.493000000016764, 3400624.847878387197852 ] ] } },
{ "type": "Feature", "properties": { }, "geometry": { "type": "LineString", "coordinates": [ [ 633672.822408085572533, 3400164.249883403535932 ], [ 633682.493000000016764, 3400164.249883403535932 ] ] } },
{ "type": "Feature", "properties": { }, "geometry": { "type": "LineString", "coordinates": [ [ 633527.67126414203085, 3400662.430319392122328 ], [ 633682.493000000016764, 3400662.430319392122328 ] ] } },
{ "type": "Feature", "properties": { }, "geometry": { "type": "LineString", "coordinates": [ [ 633757.952306682011113, 3399889.055925700347871 ], [ 633682.493000000016764, 3399889.055925700347871 ] ] } },
{ "type": "Feature", "properties": { }, "geometry": { "type": "LineString", "coordinates": [ [ 633723.786922507104464, 3400670.657418289687485 ], [ 633682.493000000016764, 3400670.657418289687485 ] ] } },
{ "type": "Feature", "properties": { }, "geometry": { "type": "LineString", "coordinates": [ [ 633735.347102350904606, 3400290.811863012611866 ], [ 633735.347102350904606, 3400283.220000000204891 ] ] } },
{ "type": "Feature", "properties": { }, "geometry": { "type": "LineString", "coordinates": [ [ 633712.107339288224466, 3400676.874805305153131 ], [ 633682.493000000016764, 3400676.874805305153131 ] ] } }
]
}
