{
"type": "FeatureCollection",
"name": "village_boundary",
"crs": { "type": "name", "properties": { "name": "urn:ogc:def:crs:EPSG::32619" } },
"features": [
{ "type": "Feature", "properties": { }, "geometry": { "type": "Polygon", "coordinates": [ [ [ 633526.493000000016764, 3399890.52 ], [ 633838.493000000016764, 3399890.52 ], [ 633900.893000000040047, 3400002.720000000204891 ], [ 633900.893000000040047, 3400563.720000000204891 ], [ 633838.493000000016764, 3400675.920000000391155 ], [ 633526.493000000016764, 3400675.920000000391155 ], [ 633464.093, 3400563.720000000204891 ], [ 633464.093, 3400002.720000000204891 ], [ 633526.493000000016764, 3399890.52 ] ] ] } }
]
}
