{
"type": "FeatureCollection",
"name": "roads",
"crs": { "type": "name", "properties": { "name": "urn:ogc:def:crs:EPSG::32619" } },
"features": [
{ "type": "Feature", "properties": { }, "geometry": { "type": "LineString", "coordinates": [ [ 258582.483, 2535117.035999999847263 ], [ 259352.483, 2535117.035999999847263 ] ] } },
{ "type": "Feature", "properties": { }, "geometry": { "type": "LineString", "coordinates": [ [ 258967.483, 2534800.986 ], [ 258967.483, 2535433.085999999660999 ] ] } },
{ "type": "Feature", "properties": { }, "geometry": { "type": "LineString", "coordinates": [ [ 259008.098568011133466, 2534869.603531554806978 ], [ 258967.483, 2534869.603531554806978 ] ] } },
{ "type": "Feature", "properties": { }, "geometry": { "type": "LineString", "coordinates": [ [ 258722.758698865771294, 2534953.883924128022045 ], [ 258722.758698865771294, 2535117.035999999847263 ] ] } },
{ "type": "Feature", "properties": { }, "geometry": { "type": "LineString", "coordinates": [ [ 259135.962264980509644, 2535291.804321202449501 ], [ 258967.483, 2535291.804321202449501 ] ] } },
{ "type": "Feature", "properties": { }, "geometry": { "type": "LineString", "coordinates": [ [ 258723.103859825496329, 2535081.238623337354511 ], [ 258723.103859825496329, 2535117.035999999847263 ] ] } },
{ "type": "Feature", "properties": { }, "geometry": { "type": "LineString", "coordinates": [ [ 259107.389394275582163, 2534921.178396722301841 ], [ 258967.483, 2534921.178396722301841 ] ] } },
{ "type": "Feature", "properties": { }, "geometry": { "type": "LineString", "coordinates": [ [ 258644.452782882115571, 2535255.647965149953961 ], [ 258644.452782882115571, 2535117.035999999847263 ] ] } },
{ "type": "Feature", "properties": { }, "geometry": { "type": "LineString", "coordinates": [ [ 259003.977751154423459, 2535035.608749899081886 ], [ 258967.483, 2535035.608749899081886 ] ] } },
{ "type": "Feature", "properties": { }, "geometry": { "type": "LineString", "coordinates": [ [ 258705.566029301582603, 2534890.968493783380836 ], [ 258705.566029301582603, 2535117.035999999847263 ] ] } },
{ "type": "Feature", "properties": { }, "geometry": { "type": "LineString", "coordinates": [ [ 258739.187386200123001, 2535134.971122907940298 ], [ 258739.187386200123001, 2535117.035999999847263 ] ] } },
{ "type": "Feature", "properties": { }, "geometry": { "type": "LineString", "coordinates": [ [ 258617.871530302218162, 2534860.823614339809865 ], [ 258617.871530302218162, 2535117.035999999847263 ] ] } },
{ "type": "Feature", "properties": { }, "geometry": { "type": "LineString", "coordinates": [ [ 258882.288802644907264, 2534956.147709568962455 ], [ 258967.483, 2534956.147709568962455 ] ] } },
{ "type": "Feature", "properties": { }, "geometry": { "type": "LineString", "coordinates": [ [ 258879.439507041388424, 2535178.528718050569296 ], [ 258879.439507041388424, 2535117.035999999847263 ] ] } },
{ "type": "Feature", "properties": { }, "geometry": { "type": "LineString", "coordinates": [ [ 258967.792071847943589, 2535184.147674239706248 ], [ 258967.483, 2535184.147674239706248 ] ] } },
{ "type": "Feature", "properties": { }, "geometry": { "type": "LineString", "coordinates": [ [ 258787.990894475282403, 2535215.503402662929147 ], [ 258787.990894475282403, 2535117.035999999847263 ] ] } },
{ "type": "Feature", "properties": { }, "geometry": { "type": "LineString", "coordinates": [ [ 258894.064720606722403, 2535077.83224057033658 ], [ 258894.064720606722403, 2535117.035999999847263 ] ] } },
{ "type": "Feature", "properties": { }, "geometry": { "type": "LineString", "coordinates": [ [ 258672.196476169425296, 2535160.6904062111862 ], [ 258672.196476169425296, 2535117.035999999847263 ] ] } },
{ "type": "Feature", "properties": { }, "geometry": { "type": "LineString", "coordinates": [ [ 258615.175976833241293, 2535197.891569616273046 ], [ 258615.175976833241293, 2535117.035999999847263 ] ] } },
{ "type": "Feature", "properties": { }, "geometry": { "type": "LineString", "coordinates": [ [ 258847.749048681027489, 2535174.688525986857712 ], [ 258847.749048681027489, 2535117.035999999847263 ] ] } },
{ "type": "Feature", "properties": { }, "geometry": { "type": "LineString", "coordinates": [ [ 258724.10871414540452, 2535264.132862586062402 ], [ 258724.10871414540452, 2535117.035999999847263 ] ] } },
{ "type": "Feature", "properties": { }, "geometry": { "type": "LineString", "coordinates": [ [ 258883.24430719279917, 2534897.842298499774188 ], [ 258967.483, 2534897.842298499774188 ] ] } },
{ "type": "Feature", "properties": { }, "geometry": { "type": "LineString", "coordinates": [ [ 259030.992376760055777, 2535196.497187615372241 ], [ 258967.483, 2535196.497187615372241 ] ] } },
{ "type": "Feature", "properties": { }, "geometry": { "type": "LineString", "coordinates": [ [ 259081.580090012896108, 2534923.151930170599371 ], [ 258967.483, 2534923.151930170599371 ] ] } },
{ "type": "Feature", "properties": { }, "geometry": { "type": "LineString", "coordinates": [ [ 259006.136706361954566, 2534946.219493560958654 ], [ 258967.483, 2534946.219493560958654 ] ] } },
{ "type": "Feature", "properties": { }, "geometry": { "type": "LineString", "coordinates": [ [ 258648.522429276519688, 2535173.785408140625805 ], [ 258648.522429276519688, 2535117.035999999847263 ] ] } },
{ "type": "Feature", "properties": { }, "geometry": { "type": "LineString", "coordinates": [ [ 258986.546885015035514, 2534895.92828375659883 ], [ 258967.483, 2534895.92828375659883 ] ] } },
{ "type": "Feature", "properties": { }, "geometry": { "type": "LineString", "coordinates": [ [ 258587.137658163555898, 2535216.066953418776393 ], [ 258587.137658163555898, 2535117.035999999847263 ] ] } },
{ "type": "Feature", "properties": { }, "geometry": { "type": "LineString", "coordinates": [ [ 259089.572038794023683, 2534835.627141995355487 ], [ 258967.483, 2534835.627141995355487 ] ] } },
{ "type": "Feature", "properties": { }, "geometry": { "type": "LineString", "coordinates": [ [ 258764.111543779610656, 2535197.775507578160614 ], [ 258764.111543779610656, 2535117.035999999847263 ] ] } },
{ "type": "Feature", "properties": { }, "geometry": { "type": "LineString", "coordinates": [ [ 258815.38423918033368, 2535092.41912196483463 ], [ 258815.38423918033368, 2535117.035999999847263 ] ] } },
{ "type": "Feature", "properties": { }, "geometry": { "type": "LineString", "coordinates": [ [ 259208.547187467105687, 2535027.959784019272774 ], [ 259208.547187467105687, 2535117.035999999847263 ] ] } },
{ "type": "Feature", "properties": { }, "geometry": { "type": "LineString", "coordinates": [ [ 258757.53835203172639, 2535140.433030816726387 ], [ 258757.53835203172639, 2535117.035999999847263 ] ] } },
{ "type": "Feature", "properties": { }, "geometry": { "type": "LineString", "coordinates": [ [ 258749.658686491427943, 2535206.922920619137585 ], [ 258749.658686491427943, 2535117.035999999847263 ] ] } },
{ "type": "Feature", "properties": { }, "geometry": { "type": "LineString", "coordinates": [ [ 258736.944058904366102, 2535219.832905493211001 ], [ 258736.944058904366102, 2535117.035999999847263 ] ] } },
{ "type": "Feature", "properties": { }, "geometry": { "type": "LineString", "coordinates": [ [ 258972.79192264485755, 2534940.069947036448866 ], [ 258967.483, 2534940.069947036448866 ] ] } },
{ "type": "Feature", "properties": { }, "geometry": { "type": "LineString", "coordinates": [ [ 258708.730545668979175, 2535222.806992876343429 ], [ 258708.730545668979175, 2535117.035999999847263 ] ] } },
{ "type": "Feature", "properties": { }, "geometry": { "type": "LineString", "coordinates": [ [ 258608.519055041397223, 2535068.105299161747098 ], [ 258608.519055041397223, 2535117.035999999847263 ] ] } },
{ "type": "Feature", "properties": { }, "geometry": { "type": "LineString", "coordinates": [ [ 258832.826074068929302, 2535039.809489850420505 ], [ 258832.826074068929302, 2535117.035999999847263 ] ] } },
{ "type": "Feature", "properties": { }, "geometry": { "type": "LineString", "coordinates": [ [ 258999.815169798181159, 2534973.10187638644129 ], [ 258967.483, 2534973.10187638644129 ] ] } },
{ "type": "Feature", "properties": { }, "geometry": { "type": "LineString", "coordinates": [ [ 259307.929270686960081, 2535088.949131651781499 ], [ 259307.929270686960081, 2535117.035999999847263 ] ] } },
{ "type": "Feature", "properties": { }, "geometry": { "type": "LineString", "coordinates": [ [ 258581.437401767238043, 2535181.943131565116346 ], [ 258581.437401767238043, 2535117.035999999847263 ] ] } },
{ "type": "Feature", "properties": { }, "geometry": { "type": "LineString", "coordinates": [ [ 258593.828144879254978, 2535102.531868752557784 ], [ 258593.828144879254978, 2535117.035999999847263 ] ] } },
{ "type": "Feature", "properties": { }, "geometry": { "type": "LineString", "coordinates": [ [ 259221.199684699764475, 2535194.537265603430569 ], [ 259221.199684699764475, 2535117.035999999847263 ] ] } },
{ "type": "Feature", "properties": { }, "geometry": { "type": "LineString", "coordinates": [ [ 258740.394245199509896, 2535248.36535874940455 ], [ 258740.394245199509896, 2535117.035999999847263 ] ] } },
{ "type": "Feature", "properties": { }, "geometry": { "type": "LineString", "coordinates": [ [ 258918.688348502240842, 2535093.17874796455726 ], [ 258918.688348502240842, 2535117.035999999847263 ] ] } },
{ "type": "Feature", "properties": { }, "geometry": { "type": "LineString", "coordinates": [ [ 258843.168057765782578, 2534843.047615693416446 ], [ 258967.483, 2534843.047615693416446 ] ] } },
{ "type": "Feature", "properties": { }, "geometry": { "type": "LineString", "coordinates": [ [ 259321.708765137969749, 2535058.955252144020051 ], [ 259321.708765137969749, 2535117.035999999847263 ] ] } },
{ "type": "Feature", "properties": { }, "geometry": { "type": "LineString", "coordinates": [ [ 259107.611500066355802, 2535252.408861691597849 ], [ 259107.611500066355802, 2535117.035999999847263 ] ] } },
{ "type": "Feature", "properties": { }, "geometry": { "type": "LineString", "coordinates": [ [ 258686.681562874407973, 2535400.978951717261225 ], [ 258967.483, 2535400.978951717261225 ] ] } },
{ "type": "Feature", "properties": { }, "geometry": { "type": "LineString", "coordinates": [ [ 258814.191107216844102, 2535022.625991754233837 ], [ 258814.191107216844102, 2535117.035999999847263 ] ] } },
{ "type": "Feature", "properties": { }, "geometry": { "type": "LineString", "coordinates": [ [ 258970.935961195878917, 2534857.591071619652212 ], [ 258967.483, 2534857.591071619652212 ] ] } },
{ "type": "Feature", "properties": { }, "geometry": { "type": "LineString", "coordinates": [ [ 258825.729297598561971, 2535327.909417704213411 ], [ 258967.483, 2535327.909417704213411 ] ] } },
{ "type": "Feature", "properties": { }, "geometry": { "type": "LineString", "coordinates": [ [ 258963.690321438974934, 2535264.548152626026422 ], [ 258967.483, 2535264.548152626026422 ] ] } },
{ "type": "Feature", "properties": { }, "geometry": { "type": "LineString", "coordinates": [ [ 258939.949651799834101, 2535281.802002960350364 ], [ 258967.483, 2535281.802002960350364 ] ] } },
{ "type": "Feature", "properties": { }, "geometry": { "type": "LineString", "coordinates": [ [ 258689.68877339939354, 2535253.543240963947028 ], [ 258689.68877339939354, 2535117.035999999847263 ] ] } },
{ "type": "Feature", "properties": { }, "geometry": { "type": "LineString", "coordinates": [ [ 258796.485643410385819, 2535115.589542738627642 ], [ 258796.485643410385819, 2535117.035999999847263 ] ] } },
{ "type": "Feature", "properties": { }, "geometry": { "type": "LineString", "coordinates": [ [ 258847.025687710178318, 2535249.238593049347401 ], [ 258967.483, 2535249.238593049347401 ] ] } },
{ "type": "Feature", "properties": { }, "geometry": { "type": "LineString", "coordinates": [ [ 259170.499626261182129, 2535233.292394495103508 ], [ 259170.499626261182129, 2535117.035999999847263 ] ] } },
{ "type": "Feature", "properties": { }, "geometry": { "type": "LineString", "coordinates": [ [ 258927.821936511783861, 2535237.338853393215686 ], [ 258967.483, 2535237.338853393215686 ] ] } },
{ "type": "Feature", "properties": { }, "geometry": { "type": "LineString", "coordinates": [ [ 259114.282879353530006, 2534961.290973443072289 ], [ 258967.483, 2534961.290973443072289 ] ] } },
{ "type": "Feature", "properties": { }, "geometry": { "type": "LineString", "coordinates": [ [ 258919.155398867616896, 2534877.733996001537889 ], [ 258967.483, 2534877.733996001537889 ] ] } },
{ "type": "Feature", "properties": { }, "geometry": { "type": "LineString", "coordinates": [ [ 259298.488683263276471, 2535015.626546375919133 ], [ 259298.488683263276471, 2535117.035999999847263 ] ] } },
{ "type": "Feature", "properties": { }, "geometry": { "type": "LineString", "coordinates": [ [ 258678.859634282329353, 2535068.504704300779849 ], [ 258678.859634282329353, 2535117.035999999847263 ] ] } },
{ "type": "Feature", "properties": { }, "geometry": { "type": "LineString", "coordinates": [ [ 259040.298410332179628, 2535029.927819033153355 ], [ 258967.483, 2535029.927819033153355 ] ] } },
{ "type": "Feature", "properties": { }, "geometry": { "type": "LineString", "coordinates": [ [ 259127.589199035603087, 2534860.343128193635494 ], [ 258967.483, 2534860.343128193635494 ] ] } },
{ "type": "Feature", "properties": { }, "geometry": { "type": "LineString", "coordinates": [ [ 258677.352580090839183, 2535329.949103939346969 ], [ 258677.352580090839183, 2535117.035999999847263 ] ] } },
{ "type": "Feature", "properties": { }, "geometry": { "type": "LineString", "coordinates": [ [ 259002.455754353810335, 2534882.153607924003154 ], [ 258967.483, 2534882.153607924003154 ] ] } },
{ "type": "Feature", "properties": { }, "geometry": { "type": "LineString", "coordinates": [ [ 258983.914145785442088, 2534867.889031041413546 ], [ 258967.483, 2534867.889031041413546 ] ] } },
{ "type": "Feature", "properties": { }, "geometry": { "type": "LineString", "coordinates": [ [ 259109.930584513873328, 2534943.067318073473871 ], [ 258967.483, 2534943.067318073473871 ] ] } },
{ "type": "Feature", "properties": { }, "geometry": { "type": "LineString", "coordinates": [ [ 258888.374971903132973, 2535138.771728571038693 ], [ 258888.374971903132973, 2535117.035999999847263 ] ] } },
{ "type": "Feature", "properties": { }, "geometry": { "type": "LineString", "coordinates": [ [ 258787.78769173042383, 2535182.680327506735921 ], [ 258787.78769173042383, 2535117.035999999847263 ] ] } },
{ "type": "Feature", "properties": { }, "geometry": { "type": "LineString", "coordinates": [ [ 258791.030327250889968, 2535396.999431339092553 ], [ 258967.483, 2535396.999431339092553 ] ] } },
{ "type": "Feature", "properties": { }, "geometry": { "type": "LineString", "coordinates": [ [ 259071.023626076348592, 2535294.768039216287434 ], [ 258967.483, 2535294.768039216287434 ] ] } },
{ "type": "Feature", "properties": { }, "geometry": { "type": "LineString", "coordinates": [ [ 258850.351396543963347, 2535270.98366772942245 ], [ 258967.483, 2535270.98366772942245 ] ] } },
{ "type": "Feature", "properties": { }, "geometry": { "type": "LineString", "coordinates": [ [ 258781.033411551878089, 2535148.732680569402874 ], [ 258781.033411551878089, 2535117.035999999847263 ] ] } },
{ "type": "Feature", "properties": { }, "geometry": { "type": "LineString", "coordinates": [ [ 258814.800702235632343, 2535186.961903330869973 ], [ 258814.800702235632343, 2535117.035999999847263 ] ] } },
{ "type": "Feature", "properties": { }, "geometry": { "type": "LineString", "coordinates": [ [ 258809.007875063078245, 2535149.389189794193953 ], [ 258809.007875063078245, 2535117.035999999847263 ] ] } },
{ "type": "Feature", "properties": { }, "geometry": { "type": "LineString", "coordinates": [ [ 259286.243921117507853, 2535082.579533586278558 ], [ 259286.243921117507853, 2535117.035999999847263 ] ] } },
{ "type": "Feature", "properties": { }, "geometry": { "type": "LineString", "coordinates": [ [ 258915.004926328954753, 2535110.237968888133764 ], [ 258915.004926328954753, 2535117.035999999847263 ] ] } },
{ "type": "Feature", "properties": { }, "geometry": { "type": "LineString", "coordinates": [ [ 258970.877539185923524, 2535249.031087799463421 ], [ 258967.483, 2535249.031087799463421 ] ] } },
{ "type": "Feature", "properties": { }, "geometry": { "type": "LineString", "coordinates": [ [ 258978.539826283144066, 2535234.376012520398945 ], [ 258967.483, 2535234.376012520398945 ] ] } },
{ "type": "Feature", "properties": { }, "geometry": { "type": "LineString", "coordinates": [ [ 258990.873149484657915, 2535235.446590681560338 ], [ 258967.483, 2535235.446590681560338 ] ] } },
{ "type": "Feature", "properties": { }, "geometry": { "type": "LineString", "coordinates": [ [ 259023.556285023165401, 2534936.961532829329371 ], [ 258967.483, 2534936.961532829329371 ] ] } },
{ "type": "Feature", "properties": { }, "geometry": { "type": "LineString", "coordinates": [ [ 258671.699940828752005, 2535219.010236063040793 ], [ 258671.699940828752005, 2535117.035999999847263 ] ] } },
{ "type": "Feature", "properties": { }, "geometry": { "type": "LineString", "coordinates": [ [ 258702.041339569201227, 2534869.34943605447188 ], [ 258702.041339569201227, 2535117.035999999847263 ] ] } },
{ "type": "Feature", "properties": { }, "geometry": { "type": "LineString", "coordinates": [ [ 259038.107800555910217, 2535117.7127012941055 ], [ 259038.107800555910217, 2535117.035999999847263 ] ] } },
{ "type": "Feature", "properties": { }, "geometry": { "type": "LineString", "coordinates": [ [ 258875.781111497228267, 2535111.122921251226217 ], [ 258875.781111497228267, 2535117.035999999847263 ] ] } },
{ "type": "Feature", "properties": { }, "geometry": { "type": "LineString", "coordinates": [ [ 258922.822359491518, 2535256.091569832060486 ], [ 258967.483, 2535256.091569832060486 ] ] } },
{ "type": "Feature", "properties": { }, "geometry": { "type": "LineString", "coordinates": [ [ 259079.804506545537151, 2534889.098350991494954 ], [ 258967.483, 2534889.098350991494954 ] ] } },
{ "type": "Feature", "properties": { }, "geometry": { "type": "LineString", "coordinates": [ [ 258890.612087589135626, 2535171.370884130243212 ], [ 258890.612087589135626, 2535117.035999999847263 ] ] } },
{ "type": "Feature", "properties": { }, "geometry": { "type": "LineString", "coordinates": [ [ 258678.381279371504206, 2535178.218479448463768 ], [ 258678.381279371504206, 2535117.035999999847263 ] ] } },
{ "type": "Feature", "properties": { }, "geometry": { "type": "LineString", "coordinates": [ [ 258607.693788151431363, 2535008.659502698108554 ], [ 258607.693788151431363, 2535117.035999999847263 ] ] } },
{ "type": "Feature", "properties": { }, "geometry": { "type": "LineString", "coordinates": [ [ 258733.618819065450225, 2535231.894673737231642 ], [ 258733.618819065450225, 2535117.035999999847263 ] ] } },
{ "type": "Feature", "properties": { }, "geometry": { "type": "LineString", "coordinates": [ [ 258904.506064470915589, 2534907.45167169906199 ], [ 258967.483, 2534907.45167169906199 ] ] } },
{ "type": "Feature", "properties": { }, "geometry": { "type": "LineString", "coordinates": [ [ 258735.397825304884464, 2535052.816346347797662 ], [ 258735.397825304884464, 2535117.035999999847263 ] ] } },
{ "type": "Feature", "properties": { }, "geometry": { "type": "LineString", "coordinates": [ [ 259337.638407209742581, 2535069.789193378295749 ], [ 259337.638407209742581, 2535117.035999999847263 ] ] } },
{ "type": "Feature", "properties": { }, "geometry": { "type": "LineString", "coordinates": [ [ 258986.070275308127748, 2535021.878523787017912 ], [ 258967.483, 2535021.878523787017912 ] ] } },
{ "type": "Feature", "properties": { }, "geometry": { "type": "LineString", "coordinates": [ [ 258995.195920096011832, 2534935.543383797165006 ], [ 258967.483, 2534935.543383797165006 ] ] } },
{ "type": "Feature", "properties": { }, "geometry": { "type": "LineString", "coordinates": [ [ 259296.22384979063645, 2534980.282500355970114 ], [ 259296.22384979063645, 2535117.035999999847263 ] ] } },
{ "type": "Feature", "properties": { }, "geometry": { "type": "LineString", "coordinates": [ [ 259119.333721644303296, 2534846.812623321078718 ], [ 258967.483, 2534846.812623321078718 ] ] } },
{ "type": "Feature", "properties": { }, "geometry": { "type": "LineString", "coordinates": [ [ 258915.99373680158169, 2535125.207936401013285 ], [ 258915.99373680158169, 2535117.035999999847263 ] ] } },
{ "type": "Feature", "properties": { }, "geometry": { "type": "LineString", "coordinates": [ [ 258712.887450982641894, 2535235.890843146014959 ], [ 258712.887450982641894, 2535117.035999999847263 ] ] } },
{ "type": "Feature", "properties": { }, "geometry": { "type": "LineString", "coordinates": [ [ 259319.359527449851157, 2535066.506892801262438 ], [ 259319.359527449851157, 2535117.035999999847263 ] ] } },
{ "type": "Feature", "properties": { }, "geometry": { "type": "LineString", "coordinates": [ [ 258583.433677949797129, 2534929.739947462454438 ], [ 258583.433677949797129, 2535117.035999999847263 ] ] } },
{ "type": "Feature", "properties": { }, "geometry": { "type": "LineString", "coordinates": [ [ 258836.227574042102788, 2535119.540203247219324 ], [ 258836.227574042102788, 2535117.035999999847263 ] ] } },
{ "type": "Feature", "properties": { }, "geometry": { "type": "LineString", "coordinates": [ [ 258908.520376592176035, 2534956.947924967855215 ], [ 258967.483, 2534956.947924967855215 ] ] } },
{ "type": "Feature", "properties": { }, "geometry": { "type": "LineString", "coordinates": [ [ 259325.629891965712886, 2534970.856720209587365 ], [ 259325.629891965712886, 2535117.035999999847263 ] ] } },
{ "type": "Feature", "properties": { }, "geometry": { "type": "LineString", "coordinates": [ [ 258978.630042261182098, 2535254.594974605366588 ], [ 258967.483, 2535254.594974605366588 ] ] } },
{ "type": "Feature", "properties": { }, "geometry": { "type": "LineString", "coordinates": [ [ 258841.370228631276404, 2535109.587830879725516 ], [ 258841.370228631276404, 2535117.035999999847263 ] ] } },
{ "type": "Feature", "properties": { }, "geometry": { "type": "LineString", "coordinates": [ [ 258865.276187079085503, 2535089.430270866490901 ], [ 258865.276187079085503, 2535117.035999999847263 ] ] } },
{ "type": "Feature", "properties": { }, "geometry": { "type": "LineString", "coordinates": [ [ 258662.668613028217806, 2535085.497216301504523 ], [ 258662.668613028217806, 2535117.035999999847263 ] ] } },
{ "type": "Feature", "properties": { }, "geometry": { "type": "LineString", "coordinates": [ [ 259148.018935781932669, 2535159.400078392587602 ], [ 259148.018935781932669, 2535117.035999999847263 ] ] } }
]
}
