{
"type": "FeatureCollection",
"name": "village_boundary",
"crs": { "type": "name", "properties": { "name": "urn:ogc:def:crs:EPSG::32619" } },
"features": [
{ "type": "Feature", "properties": { }, "geometry": { "type": "Polygon", "coordinates": [ [ [ 258692.483, 2534800.986 ], [ 259242.483, 2534800.986 ], [ 259352.483, 2534891.285999999847263 ], [ 259352.483, 2535342.785999999847263 ], [ 259242.483, 2535433.085999999660999 ], [ 258692.483, 2535433.085999999660999 ], [ 258582.483, 2535342.785999999847263 ], [ 258582.483, 2534891.285999999847263 ], [ 258692.483, 2534800.986 ] ] ] } }
]
}
